NORAD_CAT_ID,OBJECT_NAME,OBJECT_TYPE,EPOCH,MEAN_MOTION,ECCENTRICITY,INCLINATION,RA_OF_ASC_NODE,ARG_OF_PERICENTER,MEAN_ANOMALY,BSTAR,MEAN_MOTION_DOT,MEAN_MOTION_DDOT,TLE_LINE0,TLE_LINE1,TLE_LINE2,SEMIMAJOR_AXIS,PERIOD,APOGEE,PERIGEE,DECAYED
52697.0,STARLINK-4018,PAYLOAD,2023-09-07 12:53:45,15.08844278,0.000143,53.2153,292.9119,108.3403,251.7745,5.8306e-05,6.4e-06,0.0,0 STARLINK-4018,1 52697U 22053AT  23250.53733122  .00000640  00000-0  58306-4 0  9995,2 52697  53.2153 292.9119 0001430 108.3403 251.7745 15.08844278 73086,6917.867,95.437,540.722,538.743,0.0
52697.0,STARLINK-4018,PAYLOAD,2023-09-07 14:29:08,15.08846345,0.0001438,53.2153,292.6145,109.6867,250.428,9.8873e-05,1.286e-05,0.0,0 STARLINK-4018,1 52697U 22053AT  23250.60357019  .00001286  00000-0  98873-4 0  9990,2 52697  53.2153 292.6145 0001438 109.6867 250.4280 15.08846345 73096,6917.861,95.437,540.721,538.731,0.0
52697.0,STARLINK-4018,PAYLOAD,2023-09-08 09:33:45,15.08856531,0.0001625,53.2157,289.0452,116.5472,243.5687,-0.00047479,-7.84e-05,0.0,0 STARLINK-4018,1 52697U 22053AT  23251.39844390 -.00007840  00000-0 -47479-3 0  9999,2 52697  53.2157 289.0452 0001625 116.5472 243.5687 15.08856531 72808,6917.83,95.437,540.819,538.571,0.0
52697.0,STARLINK-4018,PAYLOAD,2023-09-08 19:06:05,15.08835551,0.0001505,53.2157,287.2615,105.9204,254.1954,0.00011463,1.537e-05,0.0,0 STARLINK-4018,1 52697U 22053AT  23251.79589724  .00001537  00000-0  11463-3 0  9999,2 52697  53.2157 287.2615 0001505 105.9204 254.1954 15.08835551 73277,6917.894,95.438,540.8,538.718,0.0
52697.0,STARLINK-4018,PAYLOAD,2023-09-09 03:03:01,15.08835138,0.0001505,53.2157,285.775,105.3781,254.7377,8.8304e-05,1.117e-05,0.0,0 STARLINK-4018,1 52697U 22053AT  23252.12709869  .00001117  00000-0  88304-4 0  9994,2 52697  53.2157 285.7750 0001505 105.3781 254.7377 15.08835138 72910,6917.895,95.438,540.801,538.719,0.0
52697.0,STARLINK-4018,PAYLOAD,2023-09-09 12:35:20,15.08840197,0.0001437,53.2158,283.9921,93.5506,266.565,0.00013239,1.82e-05,0.0,0 STARLINK-4018,1 52697U 22053AT  23252.52453765  .00001820  00000-0  13239-3 0  9994,2 52697  53.2158 283.9921 0001437  93.5506 266.5650 15.08840197 73386,6917.88,95.438,540.739,538.751,0.0
52697.0,STARLINK-4018,PAYLOAD,2023-09-09 18:56:50,15.08885091,0.0001271,53.2164,282.8,89.0276,271.0862,0.00072246,0.00011243,0.0,0 STARLINK-4018,1 52697U 22053AT  23252.78947014  .00011243  00000-0  72246-3 0  9990,2 52697  53.2164 282.8000 0001271  89.0276 271.0862 15.08885091 73017,6917.743,95.435,540.487,538.728,0.0
52697.0,STARLINK-4018,PAYLOAD,2023-09-10 10:50:43,15.08831761,0.0001333,53.2155,279.8288,89.171,270.9435,-0.00018035,-3.156e-05,0.0,0 STARLINK-4018,1 52697U 22053AT  23253.45188974 -.00003156  00000-0 -18035-3 0  9999,2 52697  53.2155 279.8288 0001333  89.1710 270.9435 15.08831761 73114,6917.906,95.438,540.693,538.848,0.0
52697.0,STARLINK-4018,PAYLOAD,2023-09-11 09:06:07,15.08828059,0.0001314,53.2152,275.665,86.3844,273.7299,-0.00017519,-3.074e-05,0.0,0 STARLINK-4018,1 52697U 22053AT  23254.37925619 -.00003074  00000-0 -17519-3 0  9991,2 52697  53.2152 275.6650 0001314  86.3844 273.7299 15.08828059 73669,6917.917,95.438,540.691,538.873,0.0
52697.0,STARLINK-4018,PAYLOAD,2023-09-11 13:52:17,15.08829947,0.0001261,53.2151,274.773,86.8211,273.2925,-0.00012822,-2.327e-05,0.0,0 STARLINK-4018,1 52697U 22053AT  23254.57797630 -.00002327  00000-0 -12822-3 0  9995,2 52697  53.2151 274.7730 0001261  86.8211 273.2925 15.08829947 73287,6917.911,95.438,540.648,538.904,0.0
52697.0,STARLINK-4018,PAYLOAD,2023-09-12 00:59:56,15.08879511,0.0001128,53.2152,272.6909,69.1303,290.981,-0.0014587,-0.00023453,0.0,0 STARLINK-4018,1 52697U 22053AT  23255.04162676 -.00023453  00000-0 -14587-2 0  9996,2 52697  53.2152 272.6909 0001128  69.1303 290.9810 15.08879511 73350,6917.76,95.435,540.405,538.844,0.0
52697.0,STARLINK-4018,PAYLOAD,2023-09-12 08:56:55,15.08835026,0.0001262,53.2146,271.2048,89.3216,270.7921,0.00046327,7.092e-05,0.0,0 STARLINK-4018,1 52697U 22053AT  23255.37286027  .00007092  00000-0  46327-3 0  9996,2 52697  53.2146 271.2048 0001262  89.3216 270.7921 15.08835026 73406,6917.896,95.438,540.634,538.888,0.0
52697.0,STARLINK-4018,PAYLOAD,2023-09-12 13:43:04,15.08840523,0.0001261,53.2146,270.3126,89.2809,270.8328,0.00053051,8.165e-05,0.0,0 STARLINK-4018,1 52697U 22053AT  23255.57157993  .00008165  00000-0  53051-3 0  9991,2 52697  53.2146 270.3126 0001261  89.2809 270.8328 15.08840523 73847,6917.879,95.438,540.616,538.871,0.0
52697.0,STARLINK-4018,PAYLOAD,2023-09-13 10:23:04,15.08862452,0.0001285,53.214,266.4465,88.9423,271.1716,0.00078709,0.00012268,0.0,0 STARLINK-4018,1 52697U 22053AT  23256.43269459  .00012268  00000-0  78709-3 0  9994,2 52697  53.2140 266.4465 0001285  88.9423 271.1716 15.08862452 73566,6917.812,95.436,540.566,538.788,0.0
52697.0,STARLINK-4018,PAYLOAD,2023-09-13 11:58:27,15.08865485,0.0001305,53.2142,266.1493,88.5593,271.5548,0.00082567,0.00012886,0.0,0 STARLINK-4018,1 52697U 22053AT  23256.49893313  .00012886  00000-0  82567-3 0  9995,2 52697  53.2142 266.1493 0001305  88.5593 271.5548 15.08865485 73985,6917.802,95.436,540.57,538.765,0.0
52697.0,STARLINK-4018,PAYLOAD,2023-09-13 18:20:00,15.08834522,0.000116,53.2142,264.9596,89.2534,270.8591,-0.00024531,-4.189e-05,0.0,0 STARLINK-4018,1 52697U 22053AT  23256.76389890 -.00004189  00000-0 -24531-3 0  9991,2 52697  53.2142 264.9596 0001160  89.2534 270.8591 15.08834522 73615,6917.897,95.438,540.565,538.96,0.0
52697.0,STARLINK-4018,PAYLOAD,2023-09-14 11:49:16,15.08832371,0.0001389,53.2148,261.6879,88.3616,271.7535,8.9781e-05,1.141e-05,0.0,0 STARLINK-4018,1 52697U 22053AT  23257.49254646  .00001141  00000-0  89781-4 0  9994,2 52697  53.2148 261.6879 0001389  88.3616 271.7535 15.08832371 74139,6917.904,95.438,540.73,538.808,0.0
52697.0,STARLINK-4018,PAYLOAD,2023-09-15 03:43:07,15.08845425,0.0001386,53.2147,258.7149,86.527,273.5881,0.00082538,0.00012874,0.0,0 STARLINK-4018,1 52697U 22053AT  23258.15494852  .00012874  00000-0  82538-3 0  9990,2 52697  53.2147 258.7149 0001386  86.5270 273.5881 15.08845425 73821,6917.864,95.437,540.688,538.77,0.0
52697.0,STARLINK-4018,PAYLOAD,2023-09-15 11:40:03,15.08852247,0.0001474,53.2143,257.2289,78.2774,281.8383,0.00069255,0.00010755,0.0,0 STARLINK-4018,1 52697U 22053AT  23258.48614638  .00010755  00000-0  69255-3 0  9999,2 52697  53.2143 257.2289 0001474  78.2774 281.8383 15.08852247 74281,6917.843,95.437,540.728,538.688,0.0
52697.0,STARLINK-4018,PAYLOAD,2023-09-16 00:23:08,15.08847986,0.0001784,53.2153,254.8476,85.1408,274.9788,0.00012673,1.73e-05,0.0,0 STARLINK-4018,1 52697U 22053AT  23259.01606511  .00001730  00000-0  12673-3 0  9995,2 52697  53.2153 254.8476 0001784  85.1408 274.9788 15.08847986 73957,6917.856,95.437,540.955,538.487,0.0
52697.0,STARLINK-4018,PAYLOAD,2023-09-16 11:30:49,15.08860309,0.0001372,53.2149,252.7674,81.8576,278.2571,0.00050906,7.827e-05,0.0,0 STARLINK-4018,1 52697U 22053AT  23259.47973909  .00007827  00000-0  50906-3 0  9997,2 52697  53.2149 252.7674 0001372  81.8576 278.2571 15.08860309 74436,6917.818,95.436,540.632,538.734,0.0
52697.0,STARLINK-4018,PAYLOAD,2023-09-16 16:16:59,15.08836976,0.0001581,53.2148,251.8748,83.8877,276.2295,-0.00026813,-4.552e-05,0.0,0 STARLINK-4018,1 52697U 22053AT  23259.67846353 -.00004552  00000-0 -26813-3 0  9995,2 52697  53.2148 251.8748 0001581  83.8877 276.2295 15.08836976 74057,6917.89,95.438,540.848,538.661,0.0
52697.0,STARLINK-4018,PAYLOAD,2023-09-17 08:10:50,15.08848885,0.0001388,53.2146,248.9016,88.4008,271.7143,0.00033926,5.117e-05,0.0,0 STARLINK-4018,1 52697U 22053AT  23260.34086174  .00005117  00000-0  33926-3 0  9997,2 52697  53.2146 248.9016 0001388  88.4008 271.7143 15.08848885 74157,6917.853,95.437,540.678,538.758,0.0
52697.0,STARLINK-4018,PAYLOAD,2023-09-17 16:07:46,15.08844605,0.000141,53.2146,247.4148,86.0099,274.1054,0.00016852,2.395e-05,0.0,0 STARLINK-4018,1 52697U 22053AT  23260.67206292  .00002395  00000-0  16852-3 0  9992,2 52697  53.2146 247.4148 0001410  86.0099 274.1054 15.08844605 74207,6917.866,95.437,540.707,538.756,0.0
52697.0,STARLINK-4018,PAYLOAD,2023-09-18 06:26:14,15.08839665,0.0001431,53.2153,244.7387,86.88,273.2356,6.9165e-05,8.13e-06,0.0,0 STARLINK-4018,1 52697U 22053AT  23261.26822657  .00000813  00000-0  69165-4 0  9996,2 52697  53.2153 244.7387 0001431  86.8800 273.2356 15.08839665 74295,6917.881,95.438,540.736,538.756,0.0
52697.0,STARLINK-4018,PAYLOAD,2023-09-18 11:12:24,15.08844969,0.000145,53.2153,243.8464,88.5291,271.5867,0.00019836,2.871e-05,0.0,0 STARLINK-4018,1 52697U 22053AT  23261.46694507  .00002871  00000-0  19836-3 0  9994,2 52697  53.2153 243.8464 0001450  88.5291 271.5867 15.08844969 74735,6917.865,95.437,540.733,538.727,0.0
52697.0,STARLINK-4018,PAYLOAD,2023-09-18 15:58:33,15.08841685,0.000146,53.2155,242.9539,90.6999,269.4161,0.00015429,2.169e-05,0.0,0 STARLINK-4018,1 52697U 22053AT  23261.66566674  .00002169  00000-0  15429-3 0  9993,2 52697  53.2155 242.9539 0001460  90.6999 269.4161 15.08841685 74768,6917.875,95.437,540.75,538.73,0.0
52697.0,STARLINK-4018,PAYLOAD,2023-09-19 07:52:24,15.08864853,0.0001475,53.2147,239.9792,90.8483,269.2678,0.00087251,0.00013635,0.0,0 STARLINK-4018,1 52697U 22053AT  23262.32805995  .00013635  00000-0  87251-3 0  9991,2 52697  53.2147 239.9792 0001475  90.8483 269.2678 15.08864853 74451,6917.804,95.436,540.69,538.649,0.0
52697.0,STARLINK-4018,PAYLOAD,2023-09-19 15:49:19,15.08853519,0.0001297,53.2154,238.4909,245.4949,114.5908,6.5158e-05,7.5e-06,0.0,0 STARLINK-4018,1 52697U 22053AT  23262.65925078  .00000750  00000-0  65158-4 0  9999,2 52697  53.2154 238.4909 0001297 245.4949 114.5908 15.08853519 74501,6917.839,95.437,540.601,538.807,0.0
52697.0,STARLINK-4018,PAYLOAD,2023-09-20 02:57:02,15.0883563,0.0001198,53.2151,236.4105,86.1219,273.991,-8.8559e-06,-4.29e-06,0.0,0 STARLINK-4018,1 52697U 22053AT  23263.12294541 -.00000429  00000-0 -88559-5 0  9992,2 52697  53.2151 236.4105 0001198  86.1219 273.9910 15.08835630 74578,6917.894,95.438,540.588,538.93,0.0
